PROMETHEUS 2-3          
1 41855U 16067H   23342.39127579  .00008026  00000+0  49689-3 0  9994
2 41855  98.0766 140.5255 0012971   1.3965 358.7297 15.10020350386732
DIDO-2                  
1 42000U 17008BE  23342.15533379  .00027134  00000+0  48046-3 0  9993
2 42000  97.1782  36.3380 0005798 113.1238 247.0626 15.50242151378789
AALTO-1                 
1 42775U 17036L   23342.52318099  .00021163  00000+0  45135-3 0  9996
2 42775  97.1336   8.3497 0007518 176.9892 183.1403 15.44888936359340
URSA MAIOR              
1 42776U 17036M   23342.53659633  .00028160  00000+0  52146-3 0  9994
2 42776  97.1339  10.4179 0007020 169.8470 190.2924 15.48947253359468
DIAMOND RED             
1 42783U 17036U   23342.08329832  .00041547  00000+0  60338-3 0  9993
2 42783  97.1272  14.3301 0004812 167.5512 192.5862 15.55684017359673
PEGASUS                 
1 42784U 17036V   23342.09870097  .00221811  00000+0  10553-2 0  9996
2 42784  97.1165  20.1173 0003501 139.7358 220.4171 15.82293641360079
DIAMOND GREEN           
1 42785U 17036W   23342.06565022  .00056601  00000+0  72212-3 0  9997
2 42785  97.1244  14.9679 0005001 160.4772 199.6677 15.59103053359783
DIAMOND BLUE            
1 42786U 17036X   23342.52583548  .00050797  00000+0  69713-3 0  9994
2 42786  97.1277  15.1366 0005288 158.4143 201.7337 15.57173278359830
CICERO 6                
1 42793U 17036AE  23342.55250480  .00029240  00000+0  50038-3 0  9990
2 42793  97.1260  14.1915 0005321 160.8451 199.3002 15.51196124359803
CORVUS BC2              
1 42846U 17042X   23342.52138616  .00001543  00000+0  14257-3 0  9998
2 42846  97.3726 173.5419 0008702 354.3365   5.7757 14.95922102348771
CORVUS BC1              
1 42847U 17042Y   23342.50075879  .00002319  00000+0  21119-3 0  9995
2 42847  97.3731 173.8965 0008313 356.6351   3.4814 14.96047762348786
MIRATA                  
1 43015U 17073C   23342.19433837  .00010746  00000+0  60758-3 0  9999
2 43015  97.6091 225.3054 0192170 191.7424 167.9287 14.98860606327499
MAKERSAT 0              
1 43016U 17073D   23342.62483800  .00008576  00000+0  54035-3 0  9992
2 43016  97.6069 222.4441 0211834 203.9856 155.1386 14.92628975327299
CORVUS BC3              
1 43118U 18004H   23342.15934781  .00032443  00000+0  56593-3 0  9998
2 43118  97.3106  57.4093 0004690 221.7248 138.3647 15.50640533328870
GOMX-4B                 
1 43196U 18015E   23342.41214616  .00019520  00000+0  41484-3 0  9997
2 43196  97.5933 139.6870 0011099 301.4849  58.5314 15.44984093325760
GOMX-4A                 
1 43197U 18015F   23342.55932710  .00025525  00000+0  46084-3 0  9998
2 43197  97.5903 142.9868 0009870 292.2242  67.7961 15.49671771326009
CUBEBEL-1 (BSUSAT-1)    
1 43666U 18083E   23342.56550376  .00074175  00000+0  94690-3 0  9990
2 43666  97.3565  17.0529 0005148 183.4599 176.6623 15.59017682284147
CICERO 10               
1 43690U 18088A   23342.42380683  .00026477  00000+0  52788-3 0  9993
2 43690  85.0250 313.9074 0004830 322.5267  37.5651 15.46721807282328
PROXIMA I               
1 43694U 18088E   23342.38443918  .00036877  00000+0  59296-3 0  9999
2 43694  85.0167 308.6849 0004637 234.1556 125.9272 15.52823838282677
PROXIMA II              
1 43696U 18088G   23342.48361867  .00037377  00000+0  60725-3 0  9999
2 43696  85.0168 308.7086 0004822 235.6006 124.4797 15.52533494282678
SIRION PATHFINDER-2     
1 43759U 18099B   23342.49519705  .00002953  00000+0  23976-3 0  9997
2 43759  97.5475  39.1450 0012000 225.7368 134.2872 15.00333894273741
CORVUS BC4              
1 43767U 18099K   23342.58600734  .00003110  00000+0  25543-3 0  9997
2 43767  97.5499  36.9333 0007446 262.1501  97.8878 14.99873520273655
MOVE-II                 
1 43780U 18099Y   23342.60387621  .00008964  00000+0  57833-3 0  9991
2 43780  97.5507  43.2541 0006886 279.1200  80.9249 15.08490482273987
SPACEBEE-7              
1 43816U 18099BL  23342.11687385  .00006782  00000+0  46739-3 0  9996
2 43816  97.5787  43.7354 0010244 222.7445 137.2986 15.06117817273454
SPACEBEE-5              
1 43817U 18099BM  23342.16183773  .00082436  00000+0  19492-2 0  9999
2 43817  97.5697  56.7706 0002992 220.7896 139.3127 15.41510429274231
SPACEBEE-6              
1 43818U 18099BN  23342.14044788  .00012625  00000+0  73408-3 0  9991
2 43818  97.5698  46.8263 0009787 234.7942 125.2372 15.12173311273796
SHIELDS 1               
1 43850U 18104B   23342.23756446  .00006524  00000+0  20777-3 0  9997
2 43850  85.0271  52.7777 0014071  73.9760 286.3036 15.32241699276729
STF-1                   
1 43852U 18104D   23342.23115566  .00078837  00000+0  76408-3 0  9999
2 43852  85.0153  46.5711 0005457  62.9040 297.2782 15.66088147277382
ZACUBE-2                
1 43907U 18111AH  23342.61289145  .00045857  00000+0  65476-3 0  9994
2 43907  97.1039 219.3267 0008990 307.7622  52.2819 15.56092337276112
LUME 1                  
1 43908U 18111AJ  23342.17404786  .00100620  00000+0  80775-3 0  9995
2 43908  97.1051 224.7765 0003652 296.1723  63.9164 15.70681628276433
SONATE                  
1 44400U 19038Q   23342.48757605  .00009268  00000+0  35934-3 0  9990
2 44400  97.7015 324.4774 0020948  65.1248 295.2164 15.26164278244778
LUCKY-7                 
1 44406U 19038W   23342.47971960  .00013835  00000+0  46125-3 0  9996
2 44406  97.6963 326.6458 0018940  57.8073 302.5000 15.31038746244925
BEESAT 9                
1 44412U 19038AC  23342.46976466  .00032596  00000+0  72736-3 0  9990
2 44412  97.6837 330.4662 0014811  51.3070 308.9499 15.43380639244905
JAISAT-1                
1 44419U 19038F   23342.52549450  .00035379  00000+0  78865-3 0  9994
2 44419  97.6835 331.6447 0014087  49.1365 311.1100 15.43404840245290
DUCHIFAT-3              
1 44854U 19089C   23342.54708564  .00007657  00000+0  46369-3 0  9990
2 44854  36.9588 126.4280 0008288 319.8838  40.1295 15.10188963219235
M2 PATHFINDER           
1 45727U 20037E   23342.59018749  .00001784  00000+0  16633-3 0  9995
2 45727  97.7636 155.4192 0012854  47.7106 312.5202 14.95458798187299
NETSAT-4                
1 46504U 20068U   23342.44858513  .00005076  00000+0  31043-3 0  9998
2 46504  97.7831 290.4291 0008722 305.3824  54.6589 15.10678868175186
NETSAT-3                
1 46505U 20068V   23342.44356112  .00004431  00000+0  27407-3 0  9990
2 46505  97.7809 290.1318 0008188 316.0368  44.0209 15.10342451175185
NETSAT-1                
1 46506U 20068W   23342.47695694  .00005187  00000+0  32699-3 0  9993
2 46506  97.7824 289.9420 0007366 327.8981  32.1798 15.09568272175170
NETSAT-2                
1 46507U 20068X   23342.38870157  .00005292  00000+0  32430-3 0  9993
2 46507  97.7824 290.0631 0006706 339.3228  20.7729 15.10595094175123
WILDTRACKCUBE-SIMBA     
1 47941U 21022K   23342.60335886  .00007004  00000+0  36772-3 0  9993
2 47941  97.4793 236.6930 0019539  91.5877 268.7594 15.15866178149394
BEESAT-6                
1 47957U 21022AB  23341.23880471  .00028159  00000+0  95829-3 0  9995
2 47957  97.4744 239.6400 0016337  80.7344 279.5743 15.30258131149289
SMOG-1                  
1 47964U 21022AJ  23342.53320744  .00026858  00000+0  86924-3 0  9999
2 47964  97.4820 243.5835 0014750  64.2862 295.9901 15.31914598148652
BCCSAT-1                
1 48041U 21022AK  23342.24665608  .00017750  00000+0  65584-3 0  9995
2 48041  97.4808 241.4180 0012974  67.9453 292.3163 15.27711616148468
BEESAT-5                
1 48083U 21022AM  23341.24991794  .00030650  00000+0  96281-3 0  9990
2 48083  97.4603 240.1203 0015551  78.3947 281.9039 15.32829889148472
BEESAT-7                
1 48084U 21022AN  23340.96430165  .00031806  00000+0  10615-2 0  9999
2 48084  97.4741 239.6541 0015484  79.0164 281.2818 15.30877735147982
BEESAT-8                
1 48085U 21022AP  23341.23281679  .00010948  00000+0  48832-3 0  9992
2 48085  97.4844 238.0284 0017916  87.8691 272.4596 15.21427027148440
LEDSAT                  
1 49069U 21073D   23342.50917056  .00007548  00000+0  36937-3 0  9992
2 49069  97.4646  50.6976 0020897 233.4522 126.4788 15.18287099127316
